[{"OBJECT_NAME":"PRAETORIAN SDA_619","OBJECT_ID":"2025-203T","EPOCH":"2026-03-09T14:29:57.164640","MEAN_MOTION":13.83929489,"ECCENTRICITY":0.0009419,"INCLINATION":81.3013,"RA_OF_ASC_NODE":102.9558,"ARG_OF_PERICENTER":101.1337,"MEAN_ANOMALY":259.0878,"EPHEMERIS_TYPE":0,"CLASSIFICATION_TYPE":"U","NORAD_CAT_ID":65582,"ELEMENT_SET_NO":999,"REV_AT_EPOCH":2555,"BSTAR":0.00020555,"MEAN_MOTION_DOT":2.4e-6,"MEAN_MOTION_DDOT":0},{"OBJECT_NAME":"SDA_1675","OBJECT_ID":"2025-230M","EPOCH":"2026-03-09T17:36:17.756640","MEAN_MOTION":13.84748964,"ECCENTRICITY":0.00037161,"INCLINATION":81.2979,"RA_OF_ASC_NODE":303.94,"ARG_OF_PERICENTER":72.4349,"MEAN_ANOMALY":287.7214,"EPHEMERIS_TYPE":0,"CLASSIFICATION_TYPE":"U","NORAD_CAT_ID":65985,"ELEMENT_SET_NO":999,"REV_AT_EPOCH":2004,"BSTAR":0.00019794423,"MEAN_MOTION_DOT":2.35e-6,"MEAN_MOTION_DDOT":0}]
